{"fetched_at":"2026-03-30T06:02:59Z","count":15439,"tles":[{"name":"STARLINK-32798","line1":"1 63029U 25034A   26087.72634375  .00045034  00000+0  15226-2 0  9997","line2":"2 63029  53.1594 182.3290 0001225  94.9381 265.1759 15.30218428 61824","category":"Starlink"}]}