{
  "norad_id": 63029,
  "name": "STARLINK-32798",
  "history": [
    {
      "epoch": "2026-03-28T17:25:56.100000",
      "apogee_km": 475.99991883832445,
      "perigee_km": 474.32017573203484,
      "latitude_deg": -37.09619542039427,
      "longitude_deg": -167.37100000027567,
      "semi_major_axis_km": 6853.297047285179,
      "eccentricity": 0.00012255,
      "inclination_deg": 53.1594,
      "raan_deg": 182.329,
      "arg_perigee_deg": 94.9381,
      "mean_anomaly_deg": 265.1759,
      "mean_motion_rev_day": 15.30218428
    }
  ]
}